SATELIOT_1              
1 60550U 24149CL  26068.75576468  .00003421  00000+0  29754-3 0  9995
2 60550  97.6798 146.3176 0007749  58.9869 301.2113 14.97604186 85183
STARLINK-34383          
1 64305U 25123Q   26068.75887767  .00004290  00000+0  36700-3 0  9991
2 64305  70.0020 194.4863 0003214 268.2576  91.8215 14.98337644 41628
